{
  "norad_id": 68212,
  "name": "STARLINK-37117",
  "history": [
    {
      "epoch": "2026-03-28T22:00:01.999584",
      "apogee_km": 329.1963909828928,
      "perigee_km": 327.2485959316127,
      "latitude_deg": -76.19407395273974,
      "longitude_deg": 9.202221759827808,
      "semi_major_axis_km": 6706.359493457252,
      "eccentricity": 0.00014522,
      "inclination_deg": 97.284,
      "raan_deg": 323.1131,
      "arg_perigee_deg": 93.6676,
      "mean_anomaly_deg": 304.174,
      "mean_motion_rev_day": 15.80783947
    },
    {
      "epoch": "2026-03-29T04:00:01.999584",
      "apogee_km": 329.0890202841947,
      "perigee_km": 327.12677302743305,
      "latitude_deg": 78.3168816053615,
      "longitude_deg": 33.20222175982781,
      "semi_major_axis_km": 6706.244896655814,
      "eccentricity": 0.0001463,
      "inclination_deg": 97.2842,
      "raan_deg": 323.3777,
      "arg_perigee_deg": 94.8759,
      "mean_anomaly_deg": 284.6938,
      "mean_motion_rev_day": 15.80824466
    }
  ]
}